CCSDS_OMM_VERS = 2.0
CREATION_DATE  = 
ORIGINATOR     = 

OBJECT_NAME    = STARLINK-35564
OBJECT_ID      = 2026-005S
CENTER_NAME    = EARTH
REF_FRAME      = TEME
TIME_SYSTEM    = UTC
MEAN_ELEMENT_THEORY = SGP/SGP4

EPOCH          = 2026-01-28T22:00:01.999584
MEAN_MOTION    = 15.66838155
ECCENTRICITY   = .00014313
INCLINATION    = 43.0003
RA_OF_ASC_NODE = 107.0808
ARG_OF_PERICENTER = 270.8469
MEAN_ANOMALY   = 33.5835

EPHEMERIS_TYPE = 0
CLASSIFICATION_TYPE = U
NORAD_CAT_ID   = 67420
ELEMENT_SET_NO = 999
REV_AT_EPOCH   = 368
BSTAR          = -.21491043E-1
MEAN_MOTION_DOT = -.205074E-1
MEAN_MOTION_DDOT = 0

CCSDS_OMM_VERS = 2.0
CREATION_DATE  = 
ORIGINATOR     = 

OBJECT_NAME    = STARLINK-36431
OBJECT_ID      = 2026-005T
CENTER_NAME    = EARTH
REF_FRAME      = TEME
TIME_SYSTEM    = UTC
MEAN_ELEMENT_THEORY = SGP/SGP4

EPOCH          = 2026-01-28T22:00:01.999584
MEAN_MOTION    = 15.66834309
ECCENTRICITY   = .00014881
INCLINATION    = 43.0010
RA_OF_ASC_NODE = 107.0764
ARG_OF_PERICENTER = 270.7701
MEAN_ANOMALY   = 35.5810

EPHEMERIS_TYPE = 0
CLASSIFICATION_TYPE = U
NORAD_CAT_ID   = 67421
ELEMENT_SET_NO = 999
REV_AT_EPOCH   = 358
BSTAR          = -.2145443E-1
MEAN_MOTION_DOT = -.2047446E-1
MEAN_MOTION_DDOT = 0

CCSDS_OMM_VERS = 2.0
CREATION_DATE  = 
ORIGINATOR     = 

OBJECT_NAME    = STARLINK-36418
OBJECT_ID      = 2026-005U
CENTER_NAME    = EARTH
REF_FRAME      = TEME
TIME_SYSTEM    = UTC
MEAN_ELEMENT_THEORY = SGP/SGP4

EPOCH          = 2026-01-28T22:00:01.999584
MEAN_MOTION    = 15.66836831
ECCENTRICITY   = .00013265
INCLINATION    = 43.0010
RA_OF_ASC_NODE = 107.0715
ARG_OF_PERICENTER = 272.2250
MEAN_ANOMALY   = 36.0408

EPHEMERIS_TYPE = 0
CLASSIFICATION_TYPE = U
NORAD_CAT_ID   = 67422
ELEMENT_SET_NO = 999
REV_AT_EPOCH   = 374
BSTAR          = -.21487843E-1
MEAN_MOTION_DOT = -.2050288E-1
MEAN_MOTION_DDOT = 0

CCSDS_OMM_VERS = 2.0
CREATION_DATE  = 
ORIGINATOR     = 

OBJECT_NAME    = STARLINK-36465
OBJECT_ID      = 2026-005V
CENTER_NAME    = EARTH
REF_FRAME      = TEME
TIME_SYSTEM    = UTC
MEAN_ELEMENT_THEORY = SGP/SGP4

EPOCH          = 2026-01-28T22:00:01.999584
MEAN_MOTION    = 15.66836935
ECCENTRICITY   = .0001496
INCLINATION    = 43.0011
RA_OF_ASC_NODE = 107.0672
ARG_OF_PERICENTER = 274.0433
MEAN_ANOMALY   = 36.1403

EPHEMERIS_TYPE = 0
CLASSIFICATION_TYPE = U
NORAD_CAT_ID   = 67423
ELEMENT_SET_NO = 999
REV_AT_EPOCH   = 353
BSTAR          = -.21495939E-1
MEAN_MOTION_DOT = -.2051112E-1
MEAN_MOTION_DDOT = 0

CCSDS_OMM_VERS = 2.0
CREATION_DATE  = 
ORIGINATOR     = 

OBJECT_NAME    = STARLINK-36362
OBJECT_ID      = 2026-005W
CENTER_NAME    = EARTH
REF_FRAME      = TEME
TIME_SYSTEM    = UTC
MEAN_ELEMENT_THEORY = SGP/SGP4

EPOCH          = 2026-01-28T22:00:01.999584
MEAN_MOTION    = 15.66832852
ECCENTRICITY   = .00014583
INCLINATION    = 43.0006
RA_OF_ASC_NODE = 107.0620
ARG_OF_PERICENTER = 273.3295
MEAN_ANOMALY   = 38.7725

EPHEMERIS_TYPE = 0
CLASSIFICATION_TYPE = U
NORAD_CAT_ID   = 67424
ELEMENT_SET_NO = 999
REV_AT_EPOCH   = 379
BSTAR          = -.21424864E-1
MEAN_MOTION_DOT = -.2044845E-1
MEAN_MOTION_DDOT = 0

CCSDS_OMM_VERS = 2.0
CREATION_DATE  = 
ORIGINATOR     = 

OBJECT_NAME    = STARLINK-36447
OBJECT_ID      = 2026-005X
CENTER_NAME    = EARTH
REF_FRAME      = TEME
TIME_SYSTEM    = UTC
MEAN_ELEMENT_THEORY = SGP/SGP4

EPOCH          = 2026-01-28T22:00:01.999584
MEAN_MOTION    = 15.66833908
ECCENTRICITY   = .00013805
INCLINATION    = 43.0005
RA_OF_ASC_NODE = 107.0566
ARG_OF_PERICENTER = 272.3169
MEAN_ANOMALY   = 41.7030

EPHEMERIS_TYPE = 0
CLASSIFICATION_TYPE = U
NORAD_CAT_ID   = 67425
ELEMENT_SET_NO = 999
REV_AT_EPOCH   = 379
BSTAR          = -.21458702E-1
MEAN_MOTION_DOT = -.2047685E-1
MEAN_MOTION_DDOT = 0

CCSDS_OMM_VERS = 2.0
CREATION_DATE  = 
ORIGINATOR     = 

OBJECT_NAME    = STARLINK-36146
OBJECT_ID      = 2026-005Y
CENTER_NAME    = EARTH
REF_FRAME      = TEME
TIME_SYSTEM    = UTC
MEAN_ELEMENT_THEORY = SGP/SGP4

EPOCH          = 2026-01-28T22:00:01.999584
MEAN_MOTION    = 15.66835986
ECCENTRICITY   = .0001386
INCLINATION    = 43.0008
RA_OF_ASC_NODE = 107.0520
ARG_OF_PERICENTER = 273.6748
MEAN_ANOMALY   = 42.2628

EPHEMERIS_TYPE = 0
CLASSIFICATION_TYPE = U
NORAD_CAT_ID   = 67426
ELEMENT_SET_NO = 999
REV_AT_EPOCH   = 374
BSTAR          = -.21508824E-1
MEAN_MOTION_DOT = -.2052027E-1
MEAN_MOTION_DDOT = 0

CCSDS_OMM_VERS = 2.0
CREATION_DATE  = 
ORIGINATOR     = 

OBJECT_NAME    = STARLINK-36459
OBJECT_ID      = 2026-005Z
CENTER_NAME    = EARTH
REF_FRAME      = TEME
TIME_SYSTEM    = UTC
MEAN_ELEMENT_THEORY = SGP/SGP4

EPOCH          = 2026-01-28T22:00:01.999584
MEAN_MOTION    = 15.66831237
ECCENTRICITY   = .00012769
INCLINATION    = 43.0007
RA_OF_ASC_NODE = 107.0468
ARG_OF_PERICENTER = 275.3903
MEAN_ANOMALY   = 42.4648

EPHEMERIS_TYPE = 0
CLASSIFICATION_TYPE = U
NORAD_CAT_ID   = 67427
ELEMENT_SET_NO = 999
REV_AT_EPOCH   = 371
BSTAR          = -.21429009E-1
MEAN_MOTION_DOT = -.2044924E-1
MEAN_MOTION_DDOT = 0

CCSDS_OMM_VERS = 2.0
CREATION_DATE  = 
ORIGINATOR     = 

OBJECT_NAME    = STARLINK-36464
OBJECT_ID      = 2026-005AA
CENTER_NAME    = EARTH
REF_FRAME      = TEME
TIME_SYSTEM    = UTC
MEAN_ELEMENT_THEORY = SGP/SGP4

EPOCH          = 2026-01-28T22:00:01.999584
MEAN_MOTION    = 15.66835093
ECCENTRICITY   = .00015326
INCLINATION    = 43.0007
RA_OF_ASC_NODE = 107.0370
ARG_OF_PERICENTER = 274.6060
MEAN_ANOMALY   = 47.0827

EPHEMERIS_TYPE = 0
CLASSIFICATION_TYPE = U
NORAD_CAT_ID   = 67428
ELEMENT_SET_NO = 999
REV_AT_EPOCH   = 379
BSTAR          = -.21485882E-1
MEAN_MOTION_DOT = -.2050168E-1
MEAN_MOTION_DDOT = 0

CCSDS_OMM_VERS = 2.0
CREATION_DATE  = 
ORIGINATOR     = 

OBJECT_NAME    = STARLINK-36513
OBJECT_ID      = 2026-005AB
CENTER_NAME    = EARTH
REF_FRAME      = TEME
TIME_SYSTEM    = UTC
MEAN_ELEMENT_THEORY = SGP/SGP4

EPOCH          = 2026-01-28T22:00:01.999584
MEAN_MOTION    = 15.66834253
ECCENTRICITY   = .00013441
INCLINATION    = 43.0008
RA_OF_ASC_NODE = 107.0318
ARG_OF_PERICENTER = 273.2525
MEAN_ANOMALY   = 50.3488

EPHEMERIS_TYPE = 0
CLASSIFICATION_TYPE = U
NORAD_CAT_ID   = 67429
ELEMENT_SET_NO = 999
REV_AT_EPOCH   = 379
BSTAR          = -.21410053E-1
MEAN_MOTION_DOT = -.2043616E-1
MEAN_MOTION_DDOT = 0

CCSDS_OMM_VERS = 2.0
CREATION_DATE  = 
ORIGINATOR     = 

OBJECT_NAME    = STARLINK-36515
OBJECT_ID      = 2026-005AC
CENTER_NAME    = EARTH
REF_FRAME      = TEME
TIME_SYSTEM    = UTC
MEAN_ELEMENT_THEORY = SGP/SGP4

EPOCH          = 2026-01-28T22:00:01.999584
MEAN_MOTION    = 15.66834222
ECCENTRICITY   = .00014053
INCLINATION    = 43.0008
RA_OF_ASC_NODE = 107.0420
ARG_OF_PERICENTER = 274.3769
MEAN_ANOMALY   = 45.3949

EPHEMERIS_TYPE = 0
CLASSIFICATION_TYPE = U
NORAD_CAT_ID   = 67430
ELEMENT_SET_NO = 999
REV_AT_EPOCH   = 371
BSTAR          = -.21474879E-1
MEAN_MOTION_DOT = -.2049079E-1
MEAN_MOTION_DDOT = 0

CCSDS_OMM_VERS = 2.0
CREATION_DATE  = 
ORIGINATOR     = 

OBJECT_NAME    = STARLINK-36443
OBJECT_ID      = 2026-005AD
CENTER_NAME    = EARTH
REF_FRAME      = TEME
TIME_SYSTEM    = UTC
MEAN_ELEMENT_THEORY = SGP/SGP4

EPOCH          = 2026-01-28T22:00:01.999584
MEAN_MOTION    = 15.66832323
ECCENTRICITY   = .00013738
INCLINATION    = 43.0005
RA_OF_ASC_NODE = 107.0268
ARG_OF_PERICENTER = 274.6442
MEAN_ANOMALY   = 50.8773

EPHEMERIS_TYPE = 0
CLASSIFICATION_TYPE = U
NORAD_CAT_ID   = 67431
ELEMENT_SET_NO = 999
REV_AT_EPOCH   = 374
BSTAR          = -.2142032E-1
MEAN_MOTION_DOT = -.2044357E-1
MEAN_MOTION_DDOT = 0

