STARLINK-35564          
1 67420U 26005S   26028.91668981 -.02050740  00000+0 -21491-1 0  9995
2 67420  43.0003 107.0808 0001431 270.8469  33.5835 15.66838155  3682
STARLINK-36431          
1 67421U 26005T   26028.91668981 -.02047446  00000+0 -21454-1 0  9994
2 67421  43.0010 107.0764 0001488 270.7701  35.5810 15.66834309  3583
STARLINK-36418          
1 67422U 26005U   26028.91668981 -.02050288  00000+0 -21488-1 0  9990
2 67422  43.0010 107.0715 0001326 272.2250  36.0408 15.66836831  3746
STARLINK-36465          
1 67423U 26005V   26028.91668981 -.02051112  00000+0 -21496-1 0  9997
2 67423  43.0011 107.0672 0001496 274.0433  36.1403 15.66836935  3539
STARLINK-36362          
1 67424U 26005W   26028.91668981 -.02044845  00000+0 -21425-1 0  9995
2 67424  43.0006 107.0620 0001458 273.3295  38.7725 15.66832852  3790
STARLINK-36447          
1 67425U 26005X   26028.91668981 -.02047685  00000+0 -21459-1 0  9998
2 67425  43.0005 107.0566 0001380 272.3169  41.7030 15.66833908  3798
STARLINK-36146          
1 67426U 26005Y   26028.91668981 -.02052027  00000+0 -21509-1 0  9991
2 67426  43.0008 107.0520 0001386 273.6748  42.2628 15.66835986  3747
STARLINK-36459          
1 67427U 26005Z   26028.91668981 -.02044924  00000+0 -21429-1 0  9990
2 67427  43.0007 107.0468 0001276 275.3903  42.4648 15.66831237  3714
STARLINK-36464          
1 67428U 26005AA  26028.91668981 -.02050168  00000+0 -21486-1 0  9991
2 67428  43.0007 107.0370 0001532 274.6060  47.0827 15.66835093  3790
STARLINK-36513          
1 67429U 26005AB  26028.91668981 -.02043616  00000+0 -21410-1 0  9999
2 67429  43.0008 107.0318 0001344 273.2525  50.3488 15.66834253  3793
STARLINK-36515          
1 67430U 26005AC  26028.91668981 -.02049079  00000+0 -21475-1 0  9991
2 67430  43.0008 107.0420 0001405 274.3769  45.3949 15.66834222  3713
STARLINK-36443          
1 67431U 26005AD  26028.91668981 -.02044357  00000+0 -21420-1 0  9996
2 67431  43.0005 107.0268 0001373 274.6442  50.8773 15.66832323  3745
